{"type": "FeatureCollection", "features": [ {"type": "Feature", "properties": {"norad_id": 44476, "name": "INTELSAT 39 (IS-39)", "group": "intelsat", "lat": 0.029172542299472522, "lon": 95.82941583531525, "alt_km": 35782.774108798425, "timestamp": "2025-12-14T20:40:31.436085+00:00", "meta": {"OBJECT_NAME": "INTELSAT 39 (IS-39)", "OBJECT_ID": "2019-049B", "EPOCH": "2025-12-14T03:26:24.804960", "MEAN_MOTION": 1.00270731, "ECCENTRICITY": 0.00012438, "INCLINATION": 0.0177, "RA_OF_ASC_NODE": 321.5567, "ARG_OF_PERICENTER": 181.5951, "MEAN_ANOMALY": 53.4651, "EPHEMERIS_TYPE": 0, "CLASSIFICATION_TYPE": "U", "NORAD_CAT_ID": 44476, "ELEMENT_SET_NO": 999, "REV_AT_EPOCH": 2327, "BSTAR": 0, "MEAN_MOTION_DOT": 5.1e-07, "MEAN_MOTION_DDOT": 0}, "tle": {"line1": "1 44476U 19049B   25348.14334265  .00000051  00000+0  00000+0 0  9992", "line2": "2 44476   0.0177 321.5567 0001243 181.5951  53.4651  1.00270731 23270"}}, "geometry": {"type": "Point", "coordinates": [95.82941583531525, 0.029172542299472522]}}, {"type": "Feature", "properties": {"norad_id": 46114, "name": "GALAXY 30 (G-30)", "group": "intelsat", "lat": -0.037510082796041844, "lon": -91.08782860798206, "alt_km": 35776.45363041463, "timestamp": "2025-12-14T20:40:31.436097+00:00", "meta": {"OBJECT_NAME": "GALAXY 30 (G-30)", "OBJECT_ID": "2020-056C", "EPOCH": "2025-12-13T23:07:42.447072", "MEAN_MOTION": 1.00273374, "ECCENTRICITY": 0.00021647, "INCLINATION": 0.0184, "RA_OF_ASC_NODE": 346.092, "ARG_OF_PERICENTER": 277.7385, "MEAN_ANOMALY": 40.9949, "EPHEMERIS_TYPE": 0, "CLASSIFICATION_TYPE": "U", "NORAD_CAT_ID": 46114, "ELEMENT_SET_NO": 999, "REV_AT_EPOCH": 1943, "BSTAR": 0, "MEAN_MOTION_DOT": 5.3e-07, "MEAN_MOTION_DDOT": 0}, "tle": {"line1": "1 46114U 20056C   25347.96368573  .00000053  00000+0  00000+0 0  9993", "line2": "2 46114   0.0184 346.0920 0002164 277.7385  40.9949  1.00273374 19436"}}, "geometry": {"type": "Point", "coordinates": [-91.08782860798206, -0.037510082796041844]}}, {"type": "Feature", "properties": {"norad_id": 54026, "name": "GALAXY 33 (G-33)", "group": "intelsat", "lat": -0.024483946760664982, "lon": -99.10071438893715, "alt_km": 35777.888820969216, "timestamp": "2025-12-14T20:40:31.436108+00:00", "meta": {"OBJECT_NAME": "GALAXY 33 (G-33)", "OBJECT_ID": "2022-128A", "EPOCH": "2025-12-14T05:56:17.947680", "MEAN_MOTION": 1.00272373, "ECCENTRICITY": 0.00018894, "INCLINATION": 0.0059, "RA_OF_ASC_NODE": 323.3615, "ARG_OF_PERICENTER": 293.084, "MEAN_ANOMALY": 142.7992, "EPHEMERIS_TYPE": 0, "CLASSIFICATION_TYPE": "U", "NORAD_CAT_ID": 54026, "ELEMENT_SET_NO": 999, "REV_AT_EPOCH": 1188, "BSTAR": 0, "MEAN_MOTION_DOT": 9.7e-07, "MEAN_MOTION_DDOT": 0}, "tle": {"line1": "1 54026U 22128A   25348.24742995  .00000097  00000+0  00000+0 0  9990", "line2": "2 54026   0.0059 323.3615 0001889 293.0840 142.7992  1.00272373 11885"}}, "geometry": {"type": "Point", "coordinates": [-99.10071438893715, -0.024483946760664982]}}, {"type": "Feature", "properties": {"norad_id": 54027, "name": "GALAXY 34 (G-34)", "group": "intelsat", "lat": -0.04104176385382314, "lon": -95.03741748978094, "alt_km": 35780.191841623346, "timestamp": "2025-12-14T20:40:31.436120+00:00", "meta": {"OBJECT_NAME": "GALAXY 34 (G-34)", "OBJECT_ID": "2022-128B", "EPOCH": "2025-12-14T05:57:25.339680", "MEAN_MOTION": 1.00270617, "ECCENTRICITY": 0.00014639, "INCLINATION": 0.0218, "RA_OF_ASC_NODE": 2.3881, "ARG_OF_PERICENTER": 257.8745, "MEAN_ANOMALY": 143.3311, "EPHEMERIS_TYPE": 0, "CLASSIFICATION_TYPE": "U", "NORAD_CAT_ID": 54027, "ELEMENT_SET_NO": 999, "REV_AT_EPOCH": 1205, "BSTAR": 0, "MEAN_MOTION_DOT": 0, "MEAN_MOTION_DDOT": 0}, "tle": {"line1": "1 54027U 22128B   25348.24820995  .00000000  00000+0  00000+0 0  9992", "line2": "2 54027   0.0218   2.3881 0001463 257.8745 143.3311  1.00270617 12053"}}, "geometry": {"type": "Point", "coordinates": [-95.03741748978094, -0.04104176385382314]}}, {"type": "Feature", "properties": {"norad_id": 54243, "name": "GALAXY 31 (G-31)", "group": "intelsat", "lat": -0.03064979410730517, "lon": -87.11710251896416, "alt_km": 35779.99315635422, "timestamp": "2025-12-14T20:40:31.436133+00:00", "meta": {"OBJECT_NAME": "GALAXY 31 (G-31)", "OBJECT_ID": "2022-153A", "EPOCH": "2025-12-14T06:25:37.137216", "MEAN_MOTION": 1.00270881, "ECCENTRICITY": 0.00014985, "INCLINATION": 0.0121, "RA_OF_ASC_NODE": 344.4257, "ARG_OF_PERICENTER": 293.3725, "MEAN_ANOMALY": 140.7866, "EPHEMERIS_TYPE": 0, "CLASSIFICATION_TYPE": "U", "NORAD_CAT_ID": 54243, "ELEMENT_SET_NO": 999, "REV_AT_EPOCH": 527, "BSTAR": 0, "MEAN_MOTION_DOT": 0, "MEAN_MOTION_DDOT": 0}, "tle": {"line1": "1 54243U 22153A   25348.26779094  .00000000  00000+0  00000+0 0  9995", "line2": "2 54243   0.0121 344.4257 0001498 293.3725 140.7866  1.00270881  5279"}}, "geometry": {"type": "Point", "coordinates": [-87.11710251896416, -0.03064979410730517]}}, {"type": "Feature", "properties": {"norad_id": 54244, "name": "GALAXY 32 (G-32)", "group": "intelsat", "lat": -0.02360499650592242, "lon": -57.10876278955286, "alt_km": 35775.386173841754, "timestamp": "2025-12-14T20:40:31.436144+00:00", "meta": {"OBJECT_NAME": "GALAXY 32 (G-32)", "OBJECT_ID": "2022-153B", "EPOCH": "2025-12-12T13:02:51.144864", "MEAN_MOTION": 1.00272099, "ECCENTRICITY": 0.00025848, "INCLINATION": 0.0111, "RA_OF_ASC_NODE": 11.8146, "ARG_OF_PERICENTER": 300.84, "MEAN_ANOMALY": 233.5475, "EPHEMERIS_TYPE": 0, "CLASSIFICATION_TYPE": "U", "NORAD_CAT_ID": 54244, "ELEMENT_SET_NO": 999, "REV_AT_EPOCH": 1127, "BSTAR": 0, "MEAN_MOTION_DOT": -1.63e-06, "MEAN_MOTION_DDOT": 0}, "tle": {"line1": "1 54244U 22153B   25346.54364751 -.00000163  00000+0  00000+0 0  9996", "line2": "2 54244   0.0111  11.8146 0002584 300.8400 233.5475  1.00272099 11279"}}, "geometry": {"type": "Point", "coordinates": [-57.10876278955286, -0.02360499650592242]}}, {"type": "Feature", "properties": {"norad_id": 54741, "name": "GALAXY 35 (G-35)", "group": "intelsat", "lat": -0.018566694229173304, "lon": -59.20458339631653, "alt_km": 35778.52587154707, "timestamp": "2025-12-14T20:40:31.436156+00:00", "meta": {"OBJECT_NAME": "GALAXY 35 (G-35)", "OBJECT_ID": "2022-170A", "EPOCH": "2025-12-14T06:07:39.360288", "MEAN_MOTION": 1.00269197, "ECCENTRICITY": 0.00022797, "INCLINATION": 0.0154, "RA_OF_ASC_NODE": 330.0924, "ARG_OF_PERICENTER": 300.2921, "MEAN_ANOMALY": 171.599, "EPHEMERIS_TYPE": 0, "CLASSIFICATION_TYPE": "U", "NORAD_CAT_ID": 54741, "ELEMENT_SET_NO": 999, "REV_AT_EPOCH": 1103, "BSTAR": 0, "MEAN_MOTION_DOT": 0, "MEAN_MOTION_DDOT": 0}, "tle": {"line1": "1 54741U 22170A   25348.25531667  .00000000  00000+0  00000+0 0  9998", "line2": "2 54741   0.0154 330.0924 0002279 300.2921 171.5990  1.00269197 11033"}}, "geometry": {"type": "Point", "coordinates": [-59.20458339631653, -0.018566694229173304]}}, {"type": "Feature", "properties": {"norad_id": 54742, "name": "GALAXY 36 (G-36)", "group": "intelsat", "lat": -0.01962782074270976, "lon": -55.099930184365476, "alt_km": 35784.60615899789, "timestamp": "2025-12-14T20:40:31.436183+00:00", "meta": {"OBJECT_NAME": "GALAXY 36 (G-36)", "OBJECT_ID": "2022-170B", "EPOCH": "2025-12-14T06:08:54.239712", "MEAN_MOTION": 1.00272091, "ECCENTRICITY": 3.41e-05, "INCLINATION": 0.0392, "RA_OF_ASC_NODE": 133.5892, "ARG_OF_PERICENTER": 177.3065, "MEAN_ANOMALY": 135.5126, "EPHEMERIS_TYPE": 0, "CLASSIFICATION_TYPE": "U", "NORAD_CAT_ID": 54742, "ELEMENT_SET_NO": 999, "REV_AT_EPOCH": 1091, "BSTAR": 0, "MEAN_MOTION_DOT": -1.67e-06, "MEAN_MOTION_DDOT": 0}, "tle": {"line1": "1 54742U 22170B   25348.25618333 -.00000167  00000+0  00000+0 0  9990", "line2": "2 54742   0.0392 133.5892 0000341 177.3065 135.5126  1.00272091 10912"}}, "geometry": {"type": "Point", "coordinates": [-55.099930184365476, -0.01962782074270976]}}, {"type": "Feature", "properties": {"norad_id": 57493, "name": "GALAXY 37 (G-37)", "group": "intelsat", "lat": -0.025246728251939705, "lon": -93.1010520841742, "alt_km": 35777.13294470325, "timestamp": "2025-12-14T20:40:31.436195+00:00", "meta": {"OBJECT_NAME": "GALAXY 37 (G-37)", "OBJECT_ID": "2023-112A", "EPOCH": "2025-12-14T05:12:33.306624", "MEAN_MOTION": 1.00272342, "ECCENTRICITY": 0.00020674, "INCLINATION": 0.0189, "RA_OF_ASC_NODE": 46.7489, "ARG_OF_PERICENTER": 221.3528, "MEAN_ANOMALY": 126.1788, "EPHEMERIS_TYPE": 0, "CLASSIFICATION_TYPE": "U", "NORAD_CAT_ID": 57493, "ELEMENT_SET_NO": 999, "REV_AT_EPOCH": 868, "BSTAR": 0, "MEAN_MOTION_DOT": 6.5e-07, "MEAN_MOTION_DDOT": 0}, "tle": {"line1": "1 57493U 23112A   25348.21705216  .00000065  00000+0  00000+0 0  9992", "line2": "2 57493   0.0189  46.7489 0002067 221.3528 126.1788  1.00272342  8680"}}, "geometry": {"type": "Point", "coordinates": [-93.1010520841742, -0.025246728251939705]}}]}